$$SOE
2460728.500000000, A.D. 2025-Feb-22 00:00:00.0000, 2.809228747321467E+07, 4.960243158827958E+08, -2.826375217749506E+07,
2460735.500000000, A.D. 2025-Mar-01 00:00:00.0000, 1.761077480248989E+07, 4.978906973726051E+08, -2.815233988682497E+07,
2460742.500000000, A.D. 2025-Mar-08 00:00:00.0000, 7.122549445803512E+06, 4.995630736320115E+08, -2.802987535106203E+07,
2460749.500000000, A.D. 2025-Mar-15 00:00:00.0000, -3.368258056272759E+06, 5.010424266877031E+08, -2.789649863218319E+07,
2460756.500000000, A.D. 2025-Mar-22 00:00:00.0000, -1.385758644523287E+07, 5.023298386333632E+08, -2.775235377601197E+07,
2460763.500000000, A.D. 2025-Mar-29 00:00:00.0000, -2.434144699111214E+07, 5.034264858986509E+08, -2.759758860432976E+07,
2460770.500000000, A.D. 2025-Apr-05 00:00:00.0000, -3.481592481845527E+07, 5.043336343819866E+08, -2.743235459208095E+07,
2460777.500000000, A.D. 2025-Apr-12 00:00:00.0000, -4.527718024125332E+07, 5.050526355635654E+08, -2.725680664565185E+07,
2460784.500000000, A.D. 2025-Apr-19 00:00:00.0000, -5.572145029898719E+07, 5.055849227281048E+08, -2.707110283791801E+07,
2460791.500000000, A.D. 2025-Apr-26 00:00:00.0000, -6.614505022806559E+07, 5.059320071049872E+08, -2.687540414236501E+07,
2460798.500000000, A.D. 2025-May-03 00:00:00.0000, -7.654437476143290E+07, 5.060954739553390E+08, -2.666987417590412E+07,
2460805.500000000, A.D. 2025-May-10 00:00:00.0000, -8.691589923462379E+07, 5.060769786244438E+08, -2.645467895297697E+07,
2460812.500000000, A.D. 2025-May-17 00:00:00.0000, -9.725618046879075E+07, 5.058782425274622E+08, -2.622998665825373E+07,
2460819.500000000, A.D. 2025-May-24 00:00:00.0000, -1.075618572644251E+08, 5.055010490222521E+08, -2.599596745880225E+07,
2460826.500000000, A.D. 2025-May-31 00:00:00.0000, -1.178296500960667E+08, 5.049472394879420E+08, -2.575279336903214E+07,
2460833.500000000, A.D. 2025-Jun-07 00:00:00.0000, -1.280563604172821E+08, 5.042187108216152E+08, -2.550063803359312E+07,
2460840.500000000, A.D. 2025-Jun-14 00:00:00.0000, -1.382388719480955E+08, 5.033174136931641E+08, -2.523967626622832E+07,
2460847.500000000, A.D. 2025-Jun-21 00:00:00.0000, -1.483741527355835E+08, 5.022453482911592E+08, -2.497008372348461E+07,
2460854.500000000, A.D. 2025-Jun-28 00:00:00.0000, -1.584592548688547E+08, 5.010045593285962E+08, -2.469203685591272E+07,
2460861.500000000, A.D. 2025-Jul-05 00:00:00.0000, -1.684913133741165E+08, 4.995971324708272E+08, -2.440571282170331E+07,
2460868.500000000, A.D. 2025-Jul-12 00:00:00.0000, -1.784675454885613E+08, 4.980251913846592E+08, -2.411128931944403E+07,
2460875.500000000, A.D. 2025-Jul-19 00:00:00.0000, -1.883852501314274E+08, 4.962908948364705E+08, -2.380894440428296E+07,
2460882.500000000, A.D. 2025-Jul-26 00:00:00.0000, -1.982418073704187E+08, 4.943964337853328E+08, -2.349885631124303E+07,
2460889.500000000, A.D. 2025-Aug-02 00:00:00.0000, -2.080346778260946E+08, 4.923440284950555E+08, -2.318120328976458E+07,
2460896.500000000, A.D. 2025-Aug-09 00:00:00.0000, -2.177614019986084E+08, 4.901359256524473E+08, -2.285616345261419E+07,
2460903.500000000, A.D. 2025-Aug-16 00:00:00.0000, -2.274195994474204E+08, 4.877743954301080E+08, -2.252391465112349E+07,
2460910.500000000, A.D. 2025-Aug-23 00:00:00.0000, -2.370069675387301E+08, 4.852617285113617E+08, -2.218463440193209E+07,
2460917.500000000, A.D. 2025-Aug-30 00:00:00.0000, -2.465212794389656E+08, 4.826002337922177E+08, -2.183849983671388E+07,
2460924.500000000, A.D. 2025-Sep-06 00:00:00.0000, -2.559603827795058E+08, 4.797922377616650E+08, -2.148568746279788E+07,
2460931.500000000, A.D. 2025-Sep-13 00:00:00.0000, -2.653222006690753E+08, 4.768400830780133E+08, -2.112637278402507E+07,
2460938.500000000, A.D. 2025-Sep-20 00:00:00.0000, -2.746047317854383E+08, 4.737461246951635E+08, -2.076073021578583E+07,
2460945.500000000, A.D. 2025-Sep-27 00:00:00.0000, -2.838060484940036E+08, 4.705127266485702E+08, -2.038893313648021E+07,
2460952.500000000, A.D. 2025-Oct-04 00:00:00.0000, -2.929242950159333E+08, 4.671422600393925E+08, -2.001115384605783E+07,
2460959.500000000, A.D. 2025-Oct-11 00:00:00.0000, -3.019576860245040E+08, 4.636371012722898E+08, -1.962756347406989E+07,
2460966.500000000, A.D. 2025-Oct-18 00:00:00.0000, -3.109045053913974E+08, 4.599996302705319E+08, -1.923833188534224E+07,
2460973.500000000, A.D. 2025-Oct-25 00:00:00.0000, -3.197631049488927E+08, 4.562322286780130E+08, -1.884362759499785E+07,
2460980.500000000, A.D. 2025-Nov-01 00:00:00.0000, -3.285319032336595E+08, 4.523372780627066E+08, -1.844361769514412E+07,
2460987.500000000, A.D. 2025-Nov-08 00:00:00.0000, -3.372093841821060E+08, 4.483171580892495E+08, -1.803846779898256E+07,
2460994.500000000, A.D. 2025-Nov-15 00:00:00.0000, -3.457940956333250E+08, 4.441742446008683E+08, -1.762834202071220E+07,
2461001.500000000, A.D. 2025-Nov-22 00:00:00.0000, -3.542846472404922E+08, 4.399109078290580E+08, -1.721340301016515E+07,
2461008.500000000, A.D. 2025-Nov-29 00:00:00.0000, -3.626797079474638E+08, 4.355295118640559E+08, -1.679381193536660E+07,
2461015.500000000, A.D. 2025-Dec-06 00:00:00.0000, -3.709780053115483E+08, 4.310324152485149E+08, -1.636972821530089E+07,
2461022.500000000, A.D. 2025-Dec-13 00:00:00.0000, -3.791783262412230E+08, 4.264219693222641E+08, -1.594130931804118E+07,
2461029.500000000, A.D. 2025-Dec-20 00:00:00.0000, -3.872795156575772E+08, 4.217005153381318E+08, -1.550871086073527E+07,
2461036.500000000, A.D. 2025-Dec-27 00:00:00.0000, -3.952804741564684E+08, 4.168703829374990E+08, -1.507208670102841E+07,
2461043.500000000, A.D. 2026-Jan-03 00:00:00.0000, -4.031801561335064E+08, 4.119338893686574E+08, -1.463158893631825E+07,
2461050.500000000, A.D. 2026-Jan-10 00:00:00.0000, -4.109775682640470E+08, 4.068933387675571E+08, -1.418736787617895E+07,
2461057.500000000, A.D. 2026-Jan-17 00:00:00.0000, -4.186717681073079E+08, 4.017510214076072E+08, -1.373957201647758E+07,
2461064.500000000, A.D. 2026-Jan-24 00:00:00.0000, -4.262618627582464E+08, 3.965092129394576E+08, -1.328834802017206E+07,
2461071.500000000, A.D. 2026-Jan-31 00:00:00.0000, -4.337470075251840E+08, 3.911701736116779E+08, -1.283384070724598E+07,
2461078.500000000, A.D. 2026-Feb-07 00:00:00.0000, -4.411264045729395E+08, 3.857361474132993E+08, -1.237619306380798E+07,
2461085.500000000, A.D. 2026-Feb-14 00:00:00.0000, -4.483993012795627E+08, 3.802093611211532E+08, -1.191554629452419E+07,
2461092.500000000, A.D. 2026-Feb-21 00:00:00.0000, -4.555649879202572E+08, 3.745920238271240E+08, -1.145203990649326E+07,
2461099.500000000, A.D. 2026-Feb-28 00:00:00.0000, -4.626227957647550E+08, 3.688863280968917E+08, -1.098581163058226E+07,
2461106.500000000, A.D. 2026-Mar-07 00:00:00.0000, -4.695720976482146E+08, 3.630944508087040E+08, -1.051699715063137E+07,
2461113.500000000, A.D. 2026-Mar-14 00:00:00.0000, -4.764123082404025E+08, 3.572185513377485E+08, -1.004573008550599E+07,
2461120.500000000, A.D. 2026-Mar-21 00:00:00.0000, -4.831428822304829E+08, 3.512607699814013E+08, -9.572142150339261E+06,
2461127.500000000, A.D. 2026-Mar-28 00:00:00.0000, -4.897633124380552E+08, 3.452232276517620E+08, -9.096363228380859E+06,
2461134.500000000, A.D. 2026-Apr-04 00:00:00.0000, -4.962731284551857E+08, 3.391080258683430E+08, -8.618521376794219E+06,
2461141.500000000, A.D. 2026-Apr-11 00:00:00.0000, -5.026718955458815E+08, 3.329172466893457E+08, -8.138742820649758E+06,
2461148.500000000, A.D. 2026-Apr-18 00:00:00.0000, -5.089592136438138E+08, 3.266529525729991E+08, -7.657151949941173E+06,
2461155.500000000, A.D. 2026-Apr-25 00:00:00.0000, -5.151347164024184E+08, 3.203171861818511E+08, -7.173871322308481E+06,
2461162.500000000, A.D. 2026-May-02 00:00:00.0000, -5.211980702664905E+08, 3.139119700986771E+08, -6.689021676407948E+06,
2461169.500000000, A.D. 2026-May-09 00:00:00.0000, -5.271489734402876E+08, 3.074393063861743E+08, -6.202721972503141E+06,
2461176.500000000, A.D. 2026-May-16 00:00:00.0000, -5.329871543735958E+08, 3.009011761272088E+08, -5.715089483402744E+06,
2461183.500000000, A.D. 2026-May-23 00:00:00.0000, -5.387123697132634E+08, 2.942995399663224E+08, -5.226239856762782E+06,
2461190.500000000, A.D. 2026-May-30 00:00:00.0000, -5.443244037982641E+08, 2.876363399703898E+08, -4.736286931918472E+06,
2461197.500000000, A.D. 2026-Jun-06 00:00:00.0000, -5.498230700153427E+08, 2.809134995335395E+08, -4.245342549669549E+06,
2461204.500000000, A.D. 2026-Jun-13 00:00:00.0000, -5.552082103483330E+08, 2.741329215236557E+08, -3.753516674971879E+06,
2461211.500000000, A.D. 2026-Jun-20 00:00:00.0000, -5.604796936216487E+08, 2.672964875943326E+08, -3.260917547513217E+06,
2461218.500000000, A.D. 2026-Jun-27 00:00:00.0000, -5.656374141369196E+08, 2.604060583207889E+08, -2.767651732419625E+06,
2461225.500000000, A.D. 2026-Jul-04 00:00:00.0000, -5.706812907034377E+08, 2.534634733840354E+08, -2.273824134697750E+06,
2461232.500000000, A.D. 2026-Jul-11 00:00:00.0000, -5.756112658084912E+08, 2.464705516707158E+08, -1.779538011725962E+06,
2461239.500000000, A.D. 2026-Jul-18 00:00:00.0000, -5.804273048345730E+08, 2.394290913135928E+08, -1.284894990405947E+06,
2461246.500000000, A.D. 2026-Jul-25 00:00:00.0000, -5.851293952985734E+08, 2.323408696745466E+08, -7.899950911626369E+05,
2461253.500000000, A.D. 2026-Aug-01 00:00:00.0000, -5.897175460643612E+08, 2.252076432210630E+08, -2.949367672677487E+05,
2461260.500000000, A.D. 2026-Aug-08 00:00:00.0000, -5.941917863133472E+08, 2.180311472594133E+08, 2.001830177901387E+05,
2461267.500000000, A.D. 2026-Aug-15 00:00:00.0000, -5.985521638574626E+08, 2.108130959739887E+08, 6.952686735920757E+05,
2461274.500000000, A.D. 2026-Aug-22 00:00:00.0000, -6.027987435552233E+08, 2.035551839931282E+08, 1.190225996329606E+06,
2461281.500000000, A.D. 2026-Aug-29 00:00:00.0000, -6.069316081200230E+08, 1.962590881079488E+08, 1.684962410346970E+06,
2461288.500000000, A.D. 2026-Sep-05 00:00:00.0000, -6.109508591869736E+08, 1.889264662757695E+08, 2.179387007622987E+06,
$$EOE